C/2022 L1 (Catalina),e,123.4584,300.0320,59.8475,524.9057,0.0000820,0.99696851,0.0000,09/28.2359/2022,2000,g 15.8,4.0
# From MPEC 2023-T65
C/2022 L2 (ATLAS),h,03/12.2817/2024,129.3148,39.2412,199.9260,1.001506,2.692636,2000,6.5,4.0
# From MPEC 2023-HD1
P/2022 L3 (ATLAS),e,21.5431,29.8051,10.3447,6.501662,0.0594521,0.62774795,21.6418,10/29.0/2023,2000,g 12.7,4.0
# From MPEC 2022-N37
C/2022 L4 (PANSTARRS),e,141.2419,66.0604,125.3343,283.9423,0.0002060,0.98938311,0.0000,12/08.8684/2021,2000,g 14.0,4.0
# From MPEC 2023-FK0
C/2022 N1 (Attard-Maury),e,164.7374,301.8698,41.0649,37.02621,0.0043746,0.95999666,1.8108,10/29.0/2023,2000,g 16.9,4.0
# From MPEC 2023-SQ0
C/2022 N2 (PANSTARRS),h,07/31.5758/2025,5.5022,319.7397,75.3511,1.003772,3.826751,2000,9.8,4.0
# From MPEC 2023-R20
C/2022 O1 (ATLAS),h,02/15.8481/2022,71.0410,49.9173,268.9156,1.003636,7.431513,2000,6.0,4.0
# From MPEC 2023-HD1
P/2022 O2 (PANSTARRS),e,9.4244,330.4889,48.6309,6.306254,0.0622367,0.72140218,18.3565,10/29.0/2023,2000,g 16.2,4.0
# From MPEC 2023-N01
C/2022 P1 (NEOWISE),e,154.6064,205.0825,249.9449,18.46975,0.0124169,0.91362916,4.1533,10/29.0/2023,2000,g 13.0,4.0
# From MPEC 2023-G31
P/2022 P2 (ZTF),e,12.4403,291.2158,137.6445,4.487394,0.1036842,0.55815802,49.2602,10/29.0/2023,2000,g 12.5,4.0
# From MPEC 2023-HD1
C/2022 P3 (ZTF),e,59.5163,72.2245,0.1231,248.4256,0.0002517,0.98968714,0.0000,07/27.4083/2022,2000,g  9.0,4.0
# From MPEC 2023-R20
C/2022 Q2 (ATLAS),e,151.4848,352.9468,44.0723,32.81124,0.0052441,0.94988936,1.4179,10/29.0/2023,2000,g 13.0,4.0
# From MPEC 2023-UR6
C/2022 QE78 (ATLAS),h,09/10.1523/2025,36.5479,119.9463,0.3513,1.003545,5.481354,2000,5.0,4.0
# From MPEC 2022-WD2
P/2022 R1 (PANSTARRS),e,7.3850,176.0810,222.1303,7.243115,0.0505610,0.50671448,1.0211,10/29.0/2023,2000,g 11.5,4.0
# From MPEC 2022-Y15
C/2022 R2 (ATLAS),e,52.9045,60.4096,78.3565,418.1146,0.0001153,0.99848801,0.0000,10/25.2411/2022,2000,g 17.0,4.0
# From MPEC 2023-UR6
C/2022 R3 (Leonard),h,03/05.4014/2023,43.0827,8.2397,72.8764,1.000983,5.129147,2000,9.0,4.0
# From MPEC 2022-X67
P/2022 R4 (PANSTARRS),e,21.0211,176.6259,197.4515,3.836579,0.1311559,0.49009634,62.3823,10/29.0/2023,2000,g 16.5,4.0
# From MPEC 2022-WQ9
P/2022 R5 (PANSTARRS),e,15.2946,115.0505,240.5649,3.068754,0.1833415,0.19531311,95.2822,10/29.0/2023,2000,g 16.0,4.0
# From MPEC 2023-UR6
C/2022 R6 (PANSTARRS),h,08/25.5369/2025,57.0218,150.7703,319.8576,1.004202,6.567309,2000,5.0,4.0
# From MPEC 2023-HD1
P/2022 S1 (PANSTARRS),e,34.5803,136.0923,262.7807,6.408231,0.0607571,0.50811983,26.4757,10/29.0/2023,2000,g 15.1,4.0
# From MPEC 2022-VC5
C/2022 S3 (PANSTARRS),h,01/21.6917/2023,78.5446,157.3194,267.9647,1.000396,0.838341,2000,17.0,4.0
# From MPEC 2023-UR6
C/2022 S4 (Lemmon),e,101.2218,220.1749,268.5123,1725,0.0000138,0.99839855,0.0000,07/18.5777/2024,2000,g  8.0,4.0
# From MPEC 2023-HD1
C/2022 S5 (PANSTARRS),e,136.5330,214.8588,232.7938,20.43712,0.0106678,0.89337506,3.5790,10/29.0/2023,2000,g 16.3,4.0
# From MPEC 2023-M14
C/2022 T1 (Lemmon),e,22.5436,236.9177,324.3152,11162,0.0000008,0.99969138,0.0000,02/17.5065/2024,2000,g 12.0,4.0
# From MPEC 2023-UR6
C/2022 U1 (Leonard),e,128.1482,72.5227,78.5631,9388,0.0000011,0.99955236,0.0000,03/25.7498/2024,2000,g  8.5,4.0
# From MPEC 2023-M14
C/2022 U2 (ATLAS),e,48.2461,304.4673,147.9195,96.34825,0.0010422,0.98621615,0.0000,01/14.2313/2023,2000,g 14.6,4.0
# From MPEC 2023-UR6
C/2022 U3 (Bok),h,07/27.9457/2024,33.6339,272.7917,189.0297,1.003323,4.827215,2000,7.5,4.0
# From MPEC 2023-SQ0
C/2022 U4 (Bok),e,52.0353,132.9233,89.0075,3164,0.0000055,0.99908395,0.0000,08/03.6679/2023,2000,g 13.1,4.0
# From MPEC 2023-UR6
C/2022 V2 (Lemmon),e,98.9050,332.8710,168.9492,36.84840,0.0044063,0.94399836,359.9827,10/29.0/2023,2000,g 12.0,4.0
# From MPEC 2023-CD7
P/2022 W1 (Rankin),e,13.4660,38.8151,17.8240,6.968782,0.0535758,0.51663852,21.8649,10/29.0/2023,2000,g 12.5,4.0
# From MPEC 2023-M14
C/2022 W2 (ATLAS),e,63.5273,320.4517,123.2660,340.4341,0.0001569,0.99082671,0.0000,03/08.7218/2023,2000,g 13.3,4.0
# From MPEC 2023-SQ0
C/2022 W3 (Leonard),e,103.5584,132.2692,116.5246,281.0760,0.0002092,0.99502715,0.0000,06/22.7782/2023,2000,g 14.3,4.0
# From MPEC 2023-M14
C/2022 Y1 (Hogan),e,18.8561,285.9071,174.7647,12.56916,0.0221180,0.76466899,7.4247,10/29.0/2023,2000,g  9.0,4.0
# From MPEC 2023-TM6
C/2022 Y2 (Lemmon),e,165.9061,216.3509,105.5886,19.76336,0.0112179,0.87121649,2.4704,10/29.0/2023,2000,g 13.5,4.0
# From MPEC 2023-KD6
C/2023 A1 (Leonard),e,94.7398,318.3057,159.2480,226.6188,0.0002889,0.99190396,0.0000,03/18.7195/2023,2000,g 14.5,4.0
# From MPEC 2023-J95
C/2023 A2 (SWAN),e,94.7102,94.4752,142.5611,456.7765,0.0001010,0.99792635,0.0000,01/20.3747/2023,2000,g 13.5,4.0
# From MPEC 2023-R20
C/2023 A3 (Tsuchinshan-ATLAS),h,09/27.7311/2024,139.1177,21.5576,308.4850,1.000140,0.391463,2000,5.0,4.0
# From MPEC 2023-KD6
P/2023 B1 (PANSTARRS),e,14.5882,78.5717,81.3253,7.053977,0.0526081,0.12946325,9.6752,10/29.0/2023,2000,g  5.5,4.0
# From MPEC 2023-O39
C/2023 B2 (ATLAS),e,40.7717,218.1211,317.3893,598.0014,0.0000674,0.99708540,0.0000,03/10.4857/2023,2000,g 14.5,4.0
# From MPEC 2023-F81
P/2023 B3 (PANSTARRS),e,9.1614,154.0058,240.0480,4.545747,0.1016942,0.12320543,116.8654,10/29.0/2023,2000,g 10.5,4.0
# From MPEC 2023-OA6
C/2023 C2 (ATLAS),e,48.3162,301.0167,357.4570,3258,0.0000053,0.99927317,0.0000,11/16.8258/2024,2000,g  7.0,4.0
# From MPEC 2023-UR6
C/2023 E1 (ATLAS),e,38.3131,164.5735,105.9009,19.34842,0.0115807,0.94693787,1.3884,10/29.0/2023,2000,g 15.5,4.0
# From MPEC 2023-N01
C/2023 F1 (PANSTARRS),e,131.7525,25.2479,216.6533,258.2769,0.0002375,0.99338640,0.0000,06/28.3479/2023,2000,g 16.0,4.0
# From MPEC 2023-T65
C/2023 F3 (ATLAS),h,02/02.8253/2025,145.9571,109.4461,265.5437,1.004274,5.190041,2000,6.0,4.0
# From MPEC 2023-M14
C/2023 H1 (PANSTARRS),e,21.7775,292.6425,333.8439,1567,0.0000159,0.99716595,0.0000,11/28.4097/2024,2000,g 12.6,4.0
# From MPEC 2023-UR6
C/2023 H2 (Lemmon),e,113.7538,217.0444,150.6494,246.4813,0.0002547,0.99637130,0.0000,10/29.1891/2023,2000,g 14.0,4.0
# From MPEC 2023-R20
C/2023 H3 (PANSTARRS),e,2.4895,55.1002,193.3345,13.63214,0.0195820,0.61614963,357.7856,10/29.0/2023,2000,g 10.0,4.0
# From MPEC 2023-SQ0
A/2023 H4,e,76.6186,230.8138,64.8974,140.1821,0.0005938,0.98488178,0.0000,08/08.8028/2023,2000,g 18.0,22.0
# From MPEC 2023-N01
C/2023 H5 (Lemmon),h,06/30.1475/2025,97.8776,159.4818,60.0770,1.000419,4.313067,2000,7.0,4.0
# From MPEC 2023-SQ0
C/2023 K1 (ATLAS),e,137.9987,223.7066,337.4710,730.4665,0.0000499,0.99720793,0.0000,09/07.7454/2023,2000,g 13.0,4.0
# From MPEC 2023-N01
P/2023 M1 (PANSTARRS),e,12.2883,216.8636,79.6860,6.849566,0.0549806,0.58741239,357.4495,10/29.0/2023,2000,g 13.5,4.0
# From MPEC 2023-UR6
P/2023 M2 (PANSTARRS),e,19.7259,83.2699,242.9803,5.563203,0.0751133,0.36936331,7.2040,10/29.0/2023,2000,g 12.5,4.0
# From MPEC 2023-UR6
P/2023 M4 (ATLAS),e,7.5927,296.2966,320.6836,5.452529,0.0774118,0.27930512,43.5036,10/29.0/2023,2000,g  7.5,4.0
# From MPEC 2023-SQ0
C/2023 P1 (Nishimura),e,132.4775,66.8343,116.2987,57.29579,0.0022726,0.99607041,0.0000,09/17.6417/2023,2000,g  9.7,4.0
# From MPEC 2023-UR6
C/2023 Q1 (PANSTARRS),h,12/01.4229/2024,36.6734,7.1613,84.4420,1.004024,2.575134,2000,10.0,4.0
# From MPEC 2023-UR6
C/2023 R1 (PANSTARRS),h,04/14.2619/2026,149.3129,62.5455,144.3048,1.000453,3.570270,2000,6.0,4.0
# From MPEC 2023-UR6
C/2023 R2 (PANSTARRS),h,08/12.1460/2024,30.7328,188.9841,337.1946,1.000519,0.906070,2000,10.5,4.0
# From MPEC 2023-UR6
A/2023 R3,e,12.0866,347.3553,86.8903,694.9746,0.0000538,0.99804662,0.0000,12/18.1837/2023,2000,g 20.0,22.0
# From MPEC 2023-UR6
P/2023 S1,e,9.1498,317.6739,179.7801,3.857359,0.1300975,0.32147958,297.1664,10/29.0/2023,2000,g 11.5,4.0
# From MPEC 2023-UR6
C/2023 S2 (ATLAS),e,20.4822,230.5771,78.1249,123.4479,0.0007186,0.99135395,0.0000,10/15.3819/2023,2000,g 15.0,4.0
# From MPEC 2023-UR6
P/2023 T1 (PANSTARRS),e,6.6064,249.5823,202.9078,4.237293,0.1129982,0.33534264,336.6086,10/29.0/2023,2000,g 14.0,4.0
# From MPEC 2023-UR6
C/2023 T2 (Borisov),e,48.6034,317.5545,111.1339,239.3208,0.0002662,0.99165903,0.0000,12/22.7131/2023,2000,g 14.5,4.0
# From  98, 1083
1P/Halley,e,162.2162,59.6239,112.5426,17.87038,0.0130468,0.96661977,179.4319,10/29.0/2023,2000,g  4.0,6.0
# From MPEC 2023-UR6
2P/Encke,e,11.3367,334.0195,187.2876,2.218653,0.2982428,0.84693590,1.9302,10/29.0/2023,2000,g 11.5,6.0
# From  76, 1135
3D/Biela,e,7.8869,276.1820,192.2781,3.539752,0.1479943,0.76733103,270.2723,10/29.0/2023,2000,g 11.0,6.0
# From  76, 1135
3D-A/Biela,e,7.2155,276.6888,192.1199,3.549278,0.1473988,0.76702077,301.0172,10/29.0/2023,2000,g 11.0,6.0
# From  76, 1135
3D-B/Biela,e,7.8789,276.1967,192.2390,3.540507,0.1479469,0.76762850,270.0234,10/29.0/2023,2000,g 11.0,6.0
# From MPEC 2023-FK0
4P/Faye,e,8.0091,192.9237,207.0769,3.827790,0.1316079,0.57683568,102.6465,10/29.0/2023,2000,g  8.0,6.0
# From  27, 116
5D/Brorsen,e,18.6216,94.9073,20.3061,3.158034,0.1756220,0.83763130,34.2287,10/29.0/2023,2000,g 10.5,6.0
# From MPEC 2022-WD2
6P/d'Arrest,e,19.5066,138.9456,178.0924,3.497310,0.1506964,0.61223023,116.2666,10/29.0/2023,2000,g  7.5,16.0
# From MPEC 2023-A50
7P/Pons-Winnecke,e,22.3905,93.3058,172.5089,3.407950,0.1566622,0.63881736,138.6745,10/29.0/2023,2000,g 10.0,6.0
# From MPEC 2022-HC2
8P/Tuttle,e,54.9475,270.1734,207.4763,5.703340,0.0723619,0.82036731,57.3202,10/29.0/2023,2000,g  8.0,8.0
# From MPEC 2023-UR6
9P/Tempel,e,10.5813,68.1628,180.4513,3.164824,0.1750571,0.51087930,105.1591,10/29.0/2023,2000,g  5.5,10.0
# From MPEC 2023-UR6
10P/Tempel,e,12.0320,117.8129,195.5300,3.062236,0.1839273,0.53779978,174.5857,10/29.0/2023,2000,g  5.0,10.0
# From MPEC 2023-A50
11P/Tempel-Swift-LINEAR,e,14.4334,238.8659,168.0129,3.283729,0.1656353,0.57758314,176.5772,10/29.0/2023,2000,g 17.0,4.0
# From MPEC 2023-UR6
12P/Pons-Brooks,e,74.1914,255.8571,198.9889,17.19335,0.0138249,0.95458689,357.5789,10/29.0/2023,2000,g  5.0,6.0
# From MPEC 2023-UR6
